{"type": "FeatureCollection", "features": [{"type": "Feature", "properties": {"name": "Iran Border"}, "geometry": {"type": "MultiLineString", "coordinates": [[[48.95267620000004, 30.48259050000007], [48.97872010000003, 30.491311799000073], [48.96435130000003, 30.46361870000004], [48.95267620000004, 30.48259050000007]], [[49.038171900000066, 30.46872940000003], [49.04601564300003, 30.486426015000063], [49.06075020000003, 30.48912820000004], [49.062514, 30.46755710000008], [49.038171900000066, 30.46872940000003]], [[49.03934410000005, 30.48327960000006], [49.030503758000066, 30.45985465700005], [49.006232200000056, 30.469279800000038], [49.008502100000044, 30.496310600000072], [49.0344, 30.500303200000076], [49.03934410000005, 30.48327960000006]], [[48.99652460000004, 30.501269200000024], [49.007085474000064, 30.500748739000073], [49.00316970000006, 30.466661800000054], [48.974218301000064, 30.47444260000003], [48.98061860000007, 30.49511030000008], [48.99652460000004, 30.501269200000024]], [[52.69431890000004, 27.292769400000054], [52.69087920000004, 27.301856400000077], [52.654152201000045, 27.325451400000077], [52.63386930000007, 27.349463300000025], [52.62018530000006, 27.348423], [52.57687869000006, 27.38352781100008], [52.58015619000008, 27.393058341000028], [52.628302500000075, 27.40213360000007], [52.660744400000056, 27.393648400000075], [52.670618500000046, 27.398675300000036], [52.67644990100007, 27.43178860000006], [52.67365470000004, 27.460577500000056], [52.64192420000006, 27.454250600000023], [52.61809860000005, 27.461963600000047], [52.59840060000005, 27.484591900000055], [52.584277728000075, 27.49094936000006], [52.565854400000035, 27.527121900000054], [52.54002310000004, 27.563232800000037], [52.52965720000003, 27.566408301000024], [52.50438890100003, 27.60123689900007], [52.46995410100004, 27.62589280000003], [52.45738940100006, 27.62361690000006], [52.42967480000004, 27.648040300000048], [52.363372800000036, 27.652666400000044], [52.34822530000008, 27.664023300000053], [52.30744560000005, 27.667477200000064], [52.30072190000004, 27.674083600000074], [52.264247700000055, 27.681651100000067], [52.197572001000026, 27.704093900000032], [52.185229400000026, 27.719563600000072], [52.16234078400004, 27.732812309000053], [52.133533, 27.76630330000006], [52.10351360000004, 27.785550800000067], [52.09007060000005, 27.801640100000043], [52.04722449900004, 27.838483100000076], [52.03318970000004, 27.841999300000055], [51.971819700000026, 27.842655700000023], [51.93075770100006, 27.831255200000044], [51.897944100000075, 27.83376560100004], [51.854310600000076, 27.843486900000073], [51.78165940000008, 27.84141949900004], [51.75380460000008, 27.831283600000063], [51.70079920000006, 27.824230900000032], [51.666759100000036, 27.841765201000044], [51.60856250000006, 27.84865860000008], [51.558443100000034, 27.884825600000056], [51.526909200000034, 27.890352499000073], [51.47494810000006, 27.92707450000006], [51.47007290000005, 27.93841150000003], [51.43685920000007, 27.963476400000047], [51.427127400000074, 27.95733240000004], [51.425270100000034, 27.92697959900005], [51.39707251200008, 27.93205560900003], [51.38220020000006, 27.99348320000007], [51.368097799000054, 28.022851], [51.345586, 28.054811400000062], [51.33074320000003, 28.08520610000005], [51.30604, 28.11999510000004], [51.27910619900007, 28.140505200000064], [51.27451570000005, 28.161482499000044], [51.28842370000007, 28.205961600000023], [51.285875, 28.230407400000047], [51.22558840100004, 28.293807800000025], [51.216179200000056, 28.31183160100005], [51.18426090000003, 28.346094700000037], [51.13375380100007, 28.418958900000064], [51.105886301000055, 28.487414900000033], [51.091456900000026, 28.515660900000057], [51.09298, 28.53286030000004], [51.08205321200006, 28.55025635100003], [51.07413320000006, 28.67548990000006], [51.066570900000045, 28.710222800000054], [51.04733130000005, 28.75242010000005], [51.027755951000074, 28.778770017000056], [51.028956900000026, 28.81133520000003], [51.004278200000044, 28.84838160000004], [50.95051190000004, 28.858148], [50.95110670000008, 28.836153100000047], [50.96455160000005, 28.818150100000025], [50.87912140100008, 28.83006480000006], [50.83884999900005, 28.87736330000007], [50.82888420000006, 28.899979400000063], [50.80882580000008, 28.92218869900006], [50.81125950000006, 28.96103640000007], [50.82339050000007, 28.97105140000008], [50.82773584500006, 28.99090576900005], [50.87368150000003, 28.961252400000035], [50.888339, 28.93091090000007], [50.90134880000005, 28.934136], [50.90045010000006, 28.956515500000023], [50.91975080000003, 28.96103049900006], [50.93201840000006, 28.987404], [50.920297, 29.011450100000047], [50.92671380000007, 29.04180780100006], [50.923473700000045, 29.068944200000033], [50.89946190100005, 29.071115301000077], [50.89181910000008, 29.099662600000045], [50.86749930000008, 29.107357900000068], [50.85488619900008, 29.12020650100004], [50.82409850000005, 29.136761], [50.81258450000007, 29.15376740100004], [50.76423610000006, 29.152984100000026], [50.761987300000044, 29.13347440000007], [50.73879750000003, 29.135532801000068], [50.70788750000003, 29.127342800000065], [50.691122061000044, 29.10579809500007], [50.67679360000005, 29.11423640000004], [50.64688890000008, 29.164578600000027], [50.65989570100004, 29.175286799000048], [50.66113910000007, 29.242813300000023], [50.684264, 29.257531800000038], [50.68011770000004, 29.270254400000056], [50.69386440000005, 29.284305999000026], [50.68105571500007, 29.302980602000048], [50.665809900000056, 29.294527800000026], [50.665833, 29.366685800000027], [50.66310110000006, 29.404355700000053], [50.64247330000006, 29.465006], [50.61205479900008, 29.50273210000006], [50.57755120000007, 29.527062500000056], [50.54756630000003, 29.52387729900005], [50.50796039900007, 29.55885900100003], [50.49516550000004, 29.593393400000025], [50.45373880000005, 29.635154800000066], [50.40324120000008, 29.660915100000068], [50.34735010000003, 29.719551600000045], [50.32513770000003, 29.736415700000066], [50.24022830000007, 29.857867300000066], [50.25388, 29.867204100000038], [50.22857760000005, 29.895735299000023], [50.19279160000008, 29.904394900000057], [50.18171430000007, 29.923358801000063], [50.15860980000008, 29.932215], [50.165355601000044, 29.990639800000054], [50.16160929900008, 30.035979200000043], [50.151828400000056, 30.04868270000003], [50.14643240000004, 30.078604201000076], [50.12047740000003, 30.120997200000033], [50.11555099900005, 30.153554300000053], [50.10003380000006, 30.173323400000072], [50.06917589900007, 30.196664100000078], [50.037914767000075, 30.20789627100004], [49.996727100000044, 30.215264500000046], [49.95338810000004, 30.211589100000026], [49.89495080000006, 30.191151800000057], [49.86087020000008, 30.171901899000034], [49.80421820000004, 30.13362120100004], [49.706867300000056, 30.077823], [49.59948360000004, 30.018356100000062], [49.56545260000007, 30.004948700000057], [49.51185999900008, 30.062315400000045], [49.519550501000026, 30.074759200000074], [49.51304250000004, 30.12265180000003], [49.50247180000008, 30.138547300000027], [49.46242759900008, 30.15865660000003], [49.425731, 30.15886400100004], [49.39089110000003, 30.15406980000006], [49.36651820000003, 30.16071160000007], [49.34346970000007, 30.15875150000005], [49.32825930000007, 30.148273], [49.29555270000003, 30.140395300000023], [49.24890370000003, 30.135023700000033], [49.24741590000008, 30.160589300000026], [49.25318720000007, 30.194093800000076], [49.22723920000004, 30.221515800000077], [49.23954910000003, 30.236852500000055], [49.23563799900006, 30.25685610000005], [49.252967900000044, 30.26771830000007], [49.23782720000003, 30.291855300000066], [49.22401430100007, 30.334866100000056], [49.22919140000005, 30.360134800000026], [49.24843670000007, 30.36167990000007], [49.23784590000008, 30.39007840000005], [49.26465250000007, 30.400465500000053], [49.26141380000007, 30.43256320000006], [49.24063190000004, 30.433184200000028], [49.227421, 30.474531200000058], [49.21111500100005, 30.497706600000072], [49.19720180000007, 30.488051900000073], [49.17986980000006, 30.494692500000042], [49.16819379900005, 30.514488801000027], [49.099542100000065, 30.519551500000034], [49.101009300000044, 30.451308700000027], [49.11730754200005, 30.44139781800004], [49.11214989900003, 30.428341], [49.06295060000008, 30.424618100000032], [49.041133, 30.443332], [49.072267700000054, 30.465104500000052], [49.06815240000003, 30.48317940000004], [49.07792030000007, 30.494313900000066], [49.07049530000006, 30.514340600000025], [49.052514399000074, 30.507645300000036], [48.98961570000006, 30.50514749900003], [48.94966830100003, 30.484471100000064], [48.95789380000008, 30.46017530000006], [49.00383910000005, 30.462943600000074], [49.026557300000036, 30.45493380000005], [49.055180601000075, 30.42579580100005], [49.011364, 30.399295600000073], [48.964227900000026, 30.412453], [48.93367339900004, 30.412487], [48.87303960000003, 30.363307500000076], [48.863437599000065, 30.341297300000065], [48.842990300000054, 30.334254800000053], [48.874866300000065, 30.27875080000007], [48.88971180000004, 30.263307600000076], [48.91600339900003, 30.252544300000068], [48.93155740000003, 30.231065701000034], [48.926442301000066, 30.213758401000064], [48.94418180000008, 30.172128900000075], [48.933678, 30.129540200000065], [48.922888, 30.10909780000003], [48.93481630000008, 30.096133400000042], [48.937298601000066, 30.06917530000004], [48.91190480000006, 30.02557930000006], [48.878787800000055, 30.012836], [48.846985, 30.021704400000033], [48.799653, 30.024391600000058], [48.759248299000035, 30.021138301000065], [48.72686700100007, 30.02893890000007], [48.67677420000007, 30.016751300000067], [48.67089030100004, 29.990423600000042], [48.68237490000007, 29.94100670000006], [48.61502460000003, 29.93231510000004], [48.59256750000003, 29.942882501000042], [48.53653760000003, 29.95422990000003], [48.51147690000005, 29.96254730000004], [48.46179540000003, 29.991555600000027], [48.44704170000006, 30.01650490000003], [48.444132, 30.060711300000037], [48.421150700000055, 30.091304800000046], [48.38850460000003, 30.112025500000072], [48.38466930000004, 30.133917500000052], [48.41343980000005, 30.1645], [48.41579570000005, 30.196426501000076], [48.408056, 30.211389], [48.37107340000006, 30.237320100000034], [48.27772580000004, 30.332516801000054], [48.25235180100003, 30.340097800000024], [48.227495299000054, 30.321636400000045], [48.20843230000003, 30.31576830000006], [48.188889, 30.351667], [48.182221999000035, 30.399444], [48.161436500000036, 30.427577900000074], [48.10475870000005, 30.454687199000034], [48.024415100000056, 30.477346500000067], [48.02632760000006, 30.50117830000005], [48.03240990000006, 30.994251], [48.00595570000007, 30.996794601000033], [47.731319400000075, 30.997497601000077], [47.68322560100006, 30.998487200000056], [47.68267270000007, 31.167886500000066], [47.682971, 31.394609], [47.75, 31.537185], [47.865855, 31.783613], [47.856029, 31.813027], [47.80663499900004, 31.842049], [47.798666, 31.858457], [47.809742, 31.881486], [47.789073, 31.887294], [47.783335, 31.905786], [47.760632, 31.911864], [47.731711, 31.939258], [47.71775, 31.984175], [47.697475, 32.022057], [47.671182, 32.032006], [47.664111, 32.048542], [47.646016, 32.06009099900007], [47.650555, 32.082094], [47.599665, 32.116322], [47.565708, 32.112076], [47.551281, 32.134343], [47.529201, 32.141752], [47.528611, 32.169879], [47.565278, 32.193232], [47.570527, 32.214263], [47.56371, 32.228646], [47.54143299900005, 32.233167999000045], [47.50153, 32.27702699900004], [47.521542, 32.30172], [47.478003, 32.31056699900006], [47.462703, 32.321047], [47.451204, 32.358185], [47.465348, 32.391316], [47.430383, 32.418144], [47.402146, 32.453755], [47.378021, 32.473867], [47.33026200100005, 32.476729001000024], [47.283461, 32.49637], [47.281976, 32.488519], [47.247204, 32.463729], [47.184437, 32.461891001000026], [47.16840100100006, 32.457280999000034], [47.09196399900003, 32.498257], [47.033145, 32.54454], [46.973419, 32.581341], [46.95577, 32.597626], [46.887238, 32.631954], [46.836375, 32.672572], [46.825896, 32.69473099900006], [46.791315, 32.711954], [46.783659999000065, 32.730313], [46.72061499900008, 32.78596], [46.655987, 32.80735], [46.622615, 32.822218], [46.613722, 32.832479001000024], [46.555702, 32.874702], [46.51869299900005, 32.89815599900004], [46.491513001000044, 32.902993], [46.471654999000066, 32.917659], [46.41541299900007, 32.941534], [46.312327, 32.96881600100005], [46.244134, 32.97019], [46.173556, 32.953285], [46.133747999000036, 32.960869], [46.09403300100007, 32.985127], [46.100227, 33.017357], [46.125013, 33.018707], [46.14791, 33.050527001000034], [46.147877, 33.070431], [46.117045, 33.073243], [46.084369, 33.091497], [46.04037, 33.094539], [46.05317350000007, 33.12825540100005], [46.089846, 33.119059], [46.123581, 33.116005], [46.159296, 33.142694], [46.198319, 33.191737], [46.183233, 33.20422], [46.191863, 33.23014899900005], [46.189827001000026, 33.263970001000075], [46.16971, 33.2706], [46.134, 33.292185], [46.115087999000025, 33.309296], [46.116114, 33.326319], [46.07784500100007, 33.357458], [46.078016, 33.387948], [46.045827, 33.419973], [46.038659, 33.45278], [46.023258, 33.484242], [46.00503, 33.490136], [46.008194, 33.504491], [45.984002, 33.507691], [45.953896, 33.490674], [45.90799100100003, 33.489829], [45.863003, 33.493148], [45.946961, 33.545311999000035], [45.961002, 33.56133], [45.932707, 33.593446], [45.905254, 33.606284], [45.916596, 33.627614], [45.907062, 33.638097], [45.85782900100003, 33.631962], [45.836619, 33.624907001000054], [45.81325, 33.627412], [45.808073, 33.616176], [45.753165, 33.592917], [45.771670001000075, 33.636936], [45.721749001000035, 33.660393], [45.69252, 33.69097], [45.67450899900007, 33.698905], [45.638957, 33.74582], [45.648214, 33.763411], [45.629784, 33.789094], [45.607034, 33.800299], [45.601207, 33.818456], [45.569555001000026, 33.859962], [45.549721, 33.892239], [45.51974700100004, 33.92339399900004], [45.500965, 33.950884], [45.451211, 33.94485], [45.420159, 33.959753], [45.420731, 33.98729], [45.466859, 34.018926], [45.479655001000026, 34.042872], [45.484181, 34.076502], [45.515069, 34.11252500100005], [45.560063, 34.138826], [45.581594, 34.146130001000074], [45.555602, 34.198242], [45.568655, 34.212268], [45.582854001000044, 34.24815900100003], [45.583566, 34.302663], [45.561807, 34.331623], [45.533008, 34.34635200100007], [45.508163, 34.352325], [45.496178, 34.33686699900005], [45.467746300000044, 34.37914610000007], [45.455941, 34.432990999000026], [45.439814, 34.458932], [45.46992300100004, 34.47806], [45.512519, 34.472526], [45.525705, 34.493163], [45.526642, 34.530573], [45.51502399900005, 34.554849], [45.531481, 34.588198], [45.54324290000005, 34.59662410000004], [45.577143199000034, 34.55874970000008], [45.607493, 34.548605800000075], [45.64053110000003, 34.55383450000005], [45.67056710000003, 34.552055600000074], [45.682350599000074, 34.55961190000005], [45.71414870000007, 34.54096230000005], [45.73971960000006, 34.53664990000004], [45.739377, 34.586621], [45.72375, 34.606976], [45.72995800100006, 34.619394001000046], [45.710472, 34.662293], [45.697333, 34.66964], [45.702218, 34.694534], [45.691145, 34.70526], [45.657854, 34.718431999000074], [45.671173999000075, 34.737209], [45.678303, 34.762538], [45.698772, 34.772848], [45.70402, 34.789633], [45.689008, 34.81175], [45.722369, 34.838006], [45.753623, 34.828685], [45.77436400100004, 34.835746001000075], [45.795173, 34.856211], [45.797964, 34.875172], [45.788196, 34.912122], [45.822139, 34.910841], [45.835915, 34.898646], [45.86503999900003, 34.896328], [45.867365, 34.926065], [45.892414, 34.950018], [45.893025, 34.967689], [45.87913, 35.012632], [45.88039, 35.037985], [45.920292, 35.055508], [45.925903, 35.08775699900008], [45.944116, 35.090968], [45.994864, 35.063102], [46.013628, 35.071515], [46.030229, 35.052489], [46.067703, 35.043067], [46.073488, 35.083852], [46.092129, 35.08803900100003], [46.116964, 35.074242999000035], [46.158812, 35.086877], [46.191291, 35.110888], [46.154958, 35.129519], [46.156963, 35.164236], [46.185251, 35.184326], [46.194178, 35.210945], [46.176822, 35.228746], [46.16231999900003, 35.222943], [46.112336999000036, 35.234892], [46.135614, 35.264339], [46.15790960100003, 35.28327980000006], [46.14545700100007, 35.312972], [46.09271799900006, 35.359279], [46.067567, 35.368768], [46.038331, 35.40534199900003], [46.024352, 35.436227], [46.01371, 35.444026], [45.985425, 35.496023], [45.99818200100003, 35.546364], [45.982785, 35.56127], [45.976859, 35.585386], [46.013572, 35.573796999000024], [46.017883, 35.609569], [46.009533, 35.632479], [46.01392300100008, 35.684373], [46.035721, 35.705278], [46.069903, 35.69178700100008], [46.101044, 35.687718], [46.14348800100004, 35.695458], [46.16508100100003, 35.688964], [46.179573, 35.712648], [46.203246, 35.723524], [46.233493001000056, 35.715073001000064], [46.262499, 35.728865], [46.305853, 35.761978], [46.333103, 35.763166], [46.347062, 35.787119], [46.340244, 35.819902], [46.289553, 35.82691500100003], [46.248384, 35.809324], [46.235356, 35.814589], [46.212274, 35.794952], [46.183144, 35.81199], [46.166581, 35.80032], [46.136982, 35.82516], [46.137288, 35.843527], [46.11520499900007, 35.845574], [46.092614, 35.85748599900006], [46.058257, 35.855936], [46.024967, 35.83496700100005], [45.978349, 35.834076], [45.95558900100008, 35.823191], [45.896036, 35.837649], [45.861444, 35.818841], [45.831285, 35.809702], [45.79862, 35.815092], [45.763041, 35.799961], [45.738612, 35.839201], [45.717055, 35.861578], [45.709309, 35.882627], [45.680528, 35.897988], [45.66562500100008, 35.926916], [45.62344100100006, 35.956235], [45.60420189900003, 35.958059], [45.55797429900008, 35.995102700000075], [45.51300370000007, 35.99563090000004], [45.47979070000008, 36.001063300000055], [45.458162, 35.990936600000055], [45.43992330000003, 35.998964700000045], [45.42830259900006, 35.98467660000006], [45.402834400000074, 35.97062610000006], [45.376476, 35.97654890100006], [45.354899, 35.97368760000006], [45.341986700000064, 35.99714720000003], [45.351564, 36.028681], [45.372477, 36.051487], [45.38136300100007, 36.08418000100005], [45.370625, 36.104087], [45.350507, 36.108563], [45.341514, 36.129215], [45.327135, 36.139698], [45.32320099900005, 36.178693], [45.336499, 36.204202], [45.316144, 36.221037], [45.312069, 36.238589], [45.27814, 36.244723], [45.26624700100007, 36.253089], [45.302590999000074, 36.274764], [45.275525, 36.297973], [45.260964, 36.301289], [45.273311, 36.331419], [45.27643100100005, 36.37646900100003], [45.237614, 36.43308], [45.180113, 36.417848], [45.156575, 36.416769], [45.150683, 36.404619], [45.1137, 36.405762], [45.081587, 36.42549], [45.076158, 36.455339], [45.061753, 36.463253], [45.053896, 36.506649], [45.012812, 36.519441], [45.001556, 36.538382], [45.010875001000045, 36.555942], [45.03744499900006, 36.560415], [45.039384, 36.57990299900007], [45.026885, 36.603785], [45.05631, 36.615769], [45.070317, 36.630452999000056], [45.071891, 36.65297], [45.065172001000064, 36.690003], [45.030589, 36.740471], [44.998307, 36.753456], [44.97240899900004, 36.749348], [44.958194, 36.772752], [44.942352, 36.784650999000064], [44.919431, 36.776245999000025], [44.844998, 36.778702999000075], [44.838355, 36.815753], [44.861495, 36.844895], [44.894719, 36.853449], [44.91257999900006, 36.897803], [44.912456, 36.916639], [44.89618500100005, 36.944933], [44.882725, 36.954011], [44.904065, 37.004045], [44.893885, 37.029293], [44.86896, 37.031558], [44.854548, 37.04709], [44.81707999900004, 37.039755], [44.801787, 37.048223], [44.799062, 37.06752099900007], [44.78209399900004, 37.075709], [44.777736, 37.096464], [44.749666, 37.112879], [44.763853, 37.135993], [44.78430550000007, 37.143849800000055], [44.785212, 37.166352], [44.766125, 37.183106], [44.757567900000026, 37.228341199000056], [44.76835380000006, 37.244640599000036], [44.80091820000007, 37.26047], [44.81513600100004, 37.279599], [44.798139, 37.310902999000064], [44.76695, 37.330069], [44.74321500100007, 37.334624001000066], [44.72440890100006, 37.35486960000003], [44.71106530000003, 37.38019570000006], [44.65736830000003, 37.38590480000005], [44.651949400000035, 37.402774400000055], [44.61901220000004, 37.43713870000005], [44.587315, 37.439619], [44.58267060000003, 37.48188270000003], [44.58501890000008, 37.50737680000003], [44.600798, 37.515491], [44.609523, 37.543133], [44.60259680000007, 37.559819], [44.614455, 37.600629], [44.56816, 37.644762], [44.574348, 37.665861], [44.62548790000005, 37.706647400000065], [44.620469, 37.72719570000004], [44.594773100000054, 37.74784130000006], [44.58786350100007, 37.763363800000036], [44.55731490000005, 37.77943830000004], [44.53031209900007, 37.783016700000076], [44.472723700000074, 37.76380620000003], [44.44495060000003, 37.77091710000008], [44.44759910000005, 37.80150399900003], [44.42675680000008, 37.798555100000044], [44.41480190000004, 37.81563970000008], [44.392219200000056, 37.82788240000008], [44.402986, 37.852173], [44.387445, 37.86272199900003], [44.365237, 37.862476601000026], [44.31702480000007, 37.876489400000025], [44.296402, 37.86724460000005], [44.268020300000046, 37.86724799900003], [44.22274580000004, 37.888239200000044], [44.232465, 37.90024340000008], [44.234637, 37.926953799000046], [44.251232, 37.94337040000005], [44.24060540000005, 37.95552379900005], [44.27450490000007, 38.01609980100005], [44.30132310000005, 38.032534500000054], [44.328216, 38.07828130000007], [44.329364499000064, 38.098353], [44.364805200000035, 38.105582500000025], [44.35118090000003, 38.13499420000005], [44.39269340000004, 38.146443101000045], [44.40238020000004, 38.201994099000046], [44.41160860000008, 38.21880960000004], [44.399150200000065, 38.23708860000005], [44.401780501000076, 38.251034600000025], [44.42253230000006, 38.26800270000007], [44.47789, 38.302368200000046], [44.498333900000034, 38.308938], [44.49755090000008, 38.33371160000007], [44.51005770000006, 38.34517480000005], [44.48610560000003, 38.358434800000055], [44.47277770000005, 38.35560110000006], [44.43959460000008, 38.38346740000003], [44.41611690000008, 38.36919990100006], [44.37643070000007, 38.35953150000006], [44.35115009900005, 38.36916780000007], [44.31639790000003, 38.37425450000006], [44.30367250000006, 38.39255760000003], [44.319729, 38.408868], [44.31687770000008, 38.43306590000003], [44.30526960000003, 38.440962400000046], [44.32266190000007, 38.48315860100007], [44.32546010000004, 38.502081], [44.309438, 38.530846300000064], [44.31279070000005, 38.56172140000007], [44.32465610000003, 38.57708610000003], [44.32126910000005, 38.624641600000075], [44.28140120000006, 38.641539400000056], [44.282641400000045, 38.674969], [44.26076870000003, 38.70528740000003], [44.263014500000054, 38.719182200000034], [44.292505, 38.764194900000064], [44.288589, 38.78566850000004], [44.314819500000056, 38.808795100000054], [44.29643660100004, 38.84106550000007], [44.270696300000054, 38.853805900000054], [44.25653490000008, 38.84754850000007], [44.24545530000006, 38.87021750000008], [44.21165140000005, 38.89020380000005], [44.21491610000004, 38.92044720100006], [44.18971520000008, 38.934027300000025], [44.19881920000006, 38.944208100000026], [44.18131579900006, 38.959699200000045], [44.189042200000074, 38.98186560000005], [44.17187290000004, 38.992432800000074], [44.180952500000046, 39.01068340000006], [44.21149770000005, 39.02049830000004], [44.195407800000055, 39.039285300000074], [44.205512, 39.05546790000005], [44.19092060000003, 39.07661849900006], [44.221007100000065, 39.09070359900005], [44.20759240000007, 39.11408540000008], [44.21356550000007, 39.13030450000008], [44.16638070000005, 39.177624500000036], [44.11588810100005, 39.18872270000003], [44.094084, 39.21552880000007], [44.10304690000004, 39.242792800000075], [44.084628200000054, 39.25647470000007], [44.10140940100007, 39.28947320100008], [44.08215590000003, 39.29352650000004], [44.075645499000075, 39.331796], [44.03770090000006, 39.36126430100006], [44.034293699000045, 39.37750580000005], [44.05384170000008, 39.388806], [44.051143900000056, 39.40305190000004], [44.071595599000034, 39.41233760000006], [44.09699230000007, 39.412172600000076], [44.14138170100006, 39.397658500000034], [44.19080850100005, 39.40243480000004], [44.191831800000045, 39.41053450000004], [44.23312180100004, 39.415536100000054], [44.24845669900003, 39.39738690000007], [44.265198, 39.39861390100003], [44.29520030000003, 39.37525810100004], [44.31874270000003, 39.391619400000025], [44.33364729900006, 39.38787210000004], [44.38558110000008, 39.41299250000003], [44.42195710000004, 39.411603900000046], [44.43209980000006, 39.44282020000003], [44.417582700000025, 39.48515020000008], [44.439737, 39.501147], [44.426562, 39.543383], [44.416204, 39.55644], [44.440214, 39.57252], [44.480148, 39.610424], [44.487232, 39.63908499900003], [44.46719740000003, 39.68410190000003], [44.61333790000003, 39.78165019900007], [44.638945299000056, 39.74100700100007], [44.668854699000065, 39.714410600000065], [44.71364170100003, 39.7146], [44.741841, 39.693733800000075], [44.75795190100007, 39.66997950000007], [44.79853, 39.648869], [44.80448559900003, 39.63002410000007], [44.821914400000026, 39.61126970000004], [44.853427700000054, 39.60280739900003], [44.90358560000004, 39.57675899900005], [44.909771600000056, 39.52507120000007], [44.93853230000008, 39.50946950000008], [44.95184980000005, 39.492168700000036], [44.93989379900006, 39.462458], [44.96008510000007, 39.43958340000006], [44.96377750000005, 39.42376070000006], [45.01773480000003, 39.40582060000003], [45.057142500000054, 39.36434599900008], [45.086703700000044, 39.351247200000046], [45.102127299000074, 39.332658200000026], [45.10873170000008, 39.309231200000056], [45.12603930000006, 39.304507200000046], [45.14194040000007, 39.27884380000006], [45.16123260000006, 39.213034900000025], [45.18477080000008, 39.22052290000005], [45.20364970000003, 39.20365090000007], [45.21684330000005, 39.20872080000004], [45.24762960000004, 39.18560030000003], [45.28565620000006, 39.183343800000046], [45.313378500000056, 39.20018950000008], [45.327581200000054, 39.185903300000064], [45.313492300000064, 39.166137700000036], [45.349781300000075, 39.17057370100008], [45.36319910000003, 39.14728320000006], [45.352587, 39.13295470000003], [45.36912250000006, 39.11332880000003], [45.40241110000005, 39.091673600000036], [45.403084300000046, 39.07277920000007], [45.45270060000007, 39.055054], [45.45010570000005, 39.02902810000006], [45.43688990000004, 39.01177840100007], [45.45290470100008, 38.99299649900007], [45.48680960000007, 38.986654600000065], [45.53724820100007, 38.966418100000055], [45.56849439900003, 38.97553440000007], [45.614414700000054, 38.95634560000008], [45.61831440000003, 38.94265020000006], [45.660556, 38.95170490000004], [45.690013, 38.951405599000054], [45.736821, 38.927534800000046], [45.78224940000007, 38.92562940000005], [45.812297700000045, 38.907104], [45.83327, 38.90265629900006], [45.91788010000005, 38.87332210000005], [45.944522300000074, 38.896592800000064], [45.979187, 38.87881580000004], [46.006295600000044, 38.872361900000044], [46.04157629900004, 38.87192270000003], [46.06702190000004, 38.88691240000003], [46.08043480100008, 38.871461500000066], [46.11218960000008, 38.86507380000006], [46.144855300000074, 38.84219890000003], [46.18699870000006, 38.843148], [46.21622510000003, 38.864387100000044], [46.24780260000006, 38.874048800000025], [46.282586500000036, 38.90052710000003], [46.31736150000006, 38.901543], [46.33683470100004, 38.91540260000005], [46.431668, 38.89405650000003], [46.45713250000006, 38.89824420000008], [46.465323, 38.888459700000055], [46.52641089900004, 38.88510030000003], [46.53398320000008, 38.867172], [46.60345520000004, 38.909915400000045], [46.638240300000064, 38.94034440000007], [46.64144310000006, 38.951557801000035], [46.67345540000008, 38.97787260000007], [46.69572470000003, 39.01801660000007], [46.71402259900003, 39.012809900000036], [46.75309280000005, 39.025914], [46.767934600000046, 39.058889400000055], [46.790686, 39.08710970000004], [46.81241840000007, 39.09647750000005], [46.83448320000008, 39.11559660100005], [46.845262700000035, 39.13956150000007], [46.86647080000006, 39.14070969900007], [46.92554410000008, 39.16472870000007], [46.96328310100006, 39.140536], [47.015793400000064, 39.166207], [47.05393740000005, 39.19391180000008], [47.05794940000004, 39.23813680000006], [47.132773900000075, 39.29182670000006], [47.19624920000007, 39.31999630000007], [47.21567210000006, 39.31895320000007], [47.22647519900005, 39.333478900000046], [47.245897100000036, 39.33720450000004], [47.29604430000006, 39.36708960100003], [47.315114, 39.369193600000074], [47.33985350000006, 39.41135629900003], [47.363399, 39.42172560000006], [47.396734200000026, 39.46964369900007], [47.42058530000003, 39.46480420000006], [47.44269110000005, 39.47912820100004], [47.46928490000005, 39.480179201000055], [47.505003800000054, 39.49743530000006], [47.52963139900004, 39.49878570100003], [47.56293690000007, 39.51377510000003], [47.575793899000075, 39.52789940000008], [47.62431930100007, 39.55280630000004], [47.65976660000007, 39.56656310000005], [47.688767, 39.58718230000005], [47.704341800000066, 39.585312900000076], [47.752968999000075, 39.606023], [47.76267910000007, 39.62160489900003], [47.78180560100003, 39.62542380000008], [47.78589120000004, 39.643074900000045], [47.81265040000005, 39.65897670000004], [47.86377999900003, 39.66454150000004], [47.880002399000034, 39.670673], [47.91457430000003, 39.66135110000005], [47.97166990000005, 39.692024600000025], [47.98560610000004, 39.709146], [48.03205840000004, 39.69252750000004], [48.137086200000056, 39.602], [48.33219950100005, 39.42870440100006], [48.361058600000035, 39.39406150000008], [48.355763499000034, 39.36981890000004], [48.31505080000005, 39.36222570000007], [48.30495120000006, 39.35394450000007], [48.24601590000003, 39.32953560000004], [48.21334390000004, 39.32980230000004], [48.19352870000006, 39.31338690000007], [48.16526420000008, 39.30092610000003], [48.130886701000065, 39.27149040000006], [48.130060299000036, 39.24834370000008], [48.14084950000006, 39.208201200000076], [48.16283770000007, 39.189283500000045], [48.21349179900005, 39.16670670000008], [48.23065890000004, 39.133771], [48.272899100000075, 39.12467440000006], [48.30288250000007, 39.108973], [48.304850900000076, 39.091134501000056], [48.339234900000065, 39.034108], [48.32622270000007, 39.01139910000006], [48.29259060100003, 38.97966280000003], [48.27075320000006, 38.96730180000003], [48.23955710000007, 38.96497260000007], [48.20640080000004, 38.95328760000007], [48.192037500000026, 38.95770340000007], [48.152176600000075, 38.952768], [48.14683210000004, 38.94627359900005], [48.088234500000056, 38.946950800000025], [48.06926480000004, 38.91093680000006], [48.028207800000075, 38.899428200000045], [48.01026999900006, 38.90730599900007], [48.02070279900005, 38.83788980000003], [48.040858900000046, 38.815503], [48.07971770000006, 38.800926599000036], [48.10721949900005, 38.76907380000006], [48.14471960000003, 38.76680580000004], [48.191813600000046, 38.756215300000065], [48.20647160100003, 38.73988050000003], [48.24915580000004, 38.726095900000075], [48.25939099900006, 38.708509099000025], [48.252657, 38.66190760000006], [48.294941900000026, 38.64731910000006], [48.293611, 38.637778], [48.32061670100006, 38.60179959900006], [48.361489, 38.59485380000007], [48.38840740000006, 38.60504570000006], [48.407942200000036, 38.60231180000005], [48.42511030000003, 38.61328769900007], [48.45929320000005, 38.607687800000065], [48.45352890100003, 38.589766300000065], [48.47220420100007, 38.55353270000006], [48.50550780000003, 38.54700009900006], [48.50827500100007, 38.527929001000075], [48.52667389900006, 38.51425440100007], [48.58182640000007, 38.460338300000046], [48.608164800000054, 38.41541240000004], [48.65928329900004, 38.39336590000005], [48.70679740000003, 38.40835860000004], [48.73830310000005, 38.411120700000026], [48.77004080000006, 38.44134350000007], [48.791323601000045, 38.451747700000055], [48.834187100000065, 38.45203930100007], [48.882286444000044, 38.44176418200004], [48.87204219900008, 38.39248070000008], [48.87393920000005, 38.33961780000004], [48.89064510000003, 38.21532070000006], [48.91554490000004, 38.14485380000008], [48.90867480000003, 38.12722480000008], [48.915673800000036, 38.10192760000007], [48.90931749900005, 38.07892190000007], [48.92065199900003, 38.04084410000007], [48.92082370000003, 38.00460240000007], [48.93867640000008, 37.96455340000006], [48.93085030000003, 37.92784030000007], [48.93284, 37.900917], [48.94920280000008, 37.86789660000005], [48.97867350100006, 37.83329409900006], [48.974725300000046, 37.793016100000045], [48.99621504500004, 37.759146885000064], [49.00091620000006, 37.73440590000007], [49.03171690000005, 37.69677530000007], [49.08613360100003, 37.646501201000035], [49.147073299000056, 37.60244960000006], [49.225007600000026, 37.55741910000006], [49.29685520000004, 37.52616030000007], [49.348923100000036, 37.50755280000004], [49.40748130000003, 37.49084440000007], [49.45871040000003, 37.47988060000006], [49.592772600000046, 37.46296350100005], [49.76146580000005, 37.448950600000046], [49.84189810100003, 37.44566170000007], [49.89267360000008, 37.454769200000044], [49.913026400000035, 37.47340760000003], [49.947468600000036, 37.45891420100003], [49.952013100000045, 37.438365300000044], [50.001088700000025, 37.41875630000004], [50.051639299000044, 37.40669250000008], [50.15541230100007, 37.39230210000005], [50.19849930000004, 37.379208], [50.224937200000056, 37.33544469900005], [50.22306830000008, 37.316332199000044], [50.25586830000003, 37.243822100000045], [50.27332340100003, 37.215910500000064], [50.27518980000008, 37.20116420000005], [50.310275, 37.14215420000005], [50.389392100000066, 37.086666500000035], [50.463811399000065, 37.04179360100005], [50.47235010000003, 37.02725390100005], [50.52792620000008, 36.999097], [50.56763265500007, 36.98445358200007], [50.59264045000003, 36.965640317000066], [50.65466912100004, 36.94133506400004], [50.69141550000006, 36.90432720000007], [50.77335877500008, 36.87389196600003], [50.79023780000006, 36.86123010000006], [50.86223390100008, 36.83192020100006], [50.93676510000006, 36.78734120000007], [50.98267650000008, 36.76761669900003], [51.07617510000006, 36.73724530000004], [51.135555700000054, 36.72264590000003], [51.23112530100008, 36.70557470000006], [51.32210770000006, 36.692945601000076], [51.428064799000026, 36.685369800000046], [51.47917290000004, 36.663100900000074], [51.50440080100003, 36.66085530000004], [51.52085510000006, 36.64888320000006], [51.57209920000008, 36.63435480000004], [51.59175830000004, 36.620623300000034], [51.65960860000007, 36.59938610000006], [51.736798899000064, 36.58893750000004], [51.81656820000006, 36.58376749900003], [51.83661050000006, 36.57579330000004], [51.88708580000008, 36.57174250000003], [51.95112880100004, 36.572569], [52.02180350100008, 36.579880600000024], [52.101573700000074, 36.59481430000005], [52.28622, 36.64278940000003], [52.44010190000006, 36.67942830000004], [52.602030600000035, 36.70247399900006], [52.65616250000005, 36.71391980000004], [52.77163170100005, 36.730348400000025], [52.88921869900008, 36.75351960000006], [53.03742759900007, 36.79129950000004], [53.11533130000004, 36.814234800000065], [53.23769650000003, 36.83933970000004], [53.292476900000054, 36.84260870000003], [53.368714700000055, 36.860341], [53.394133501000056, 36.856264500000066], [53.45938060000003, 36.866409600000054], [53.52716780000003, 36.87378650000005], [53.78643110000007, 36.89753470000005], [53.81155, 36.90134899900005], [53.95095050000003, 36.90606370000006], [53.917629600000055, 36.88854820000006], [53.84790060100005, 36.884034], [53.81950350200003, 36.87678648200006], [53.78141060000007, 36.879859200000055], [53.74727950000005, 36.86607140000007], [53.68452560000003, 36.860724600000026], [53.61467850100007, 36.869158500000026], [53.58392710100003, 36.86043840000008], [53.54519284400004, 36.85631433700007], [53.580477838000036, 36.83920178200003], [53.579367700000034, 36.82544790000003], [53.533641239000076, 36.834182068000075], [53.47962965800008, 36.83571778900006], [53.42749340000006, 36.84090470000007], [53.38446150100003, 36.830227801000035], [53.38246040000007, 36.813987], [53.40178220000007, 36.79881430000006], [53.431508, 36.79494620000003], [53.47611050000006, 36.78143630000005], [53.53278020000005, 36.78787380000006], [53.55242240000007, 36.78069280100004], [53.590788700000076, 36.777719700000034], [53.61161430000004, 36.78417250000007], [53.65763830000003, 36.78592130000004], [53.66236660000004, 36.79446520000005], [53.71132840000007, 36.78430970000005], [53.747487800000044, 36.78107630000005], [53.79774222100008, 36.78666863500007], [53.86221479900007, 36.78155920000006], [53.888191799000026, 36.77570070000007], [53.90073760000007, 36.782501299000046], [53.928230400000075, 36.77973350000008], [54.02398050000005, 36.80223580000006], [54.03610130100003, 36.81704], [54.05092030000003, 36.88533], [54.04398390000006, 36.89739970000005], [54.04515420000007, 36.94851579900006], [54.02680440000006, 36.972336100000064], [54.027387, 36.985799900000075], [54.04635250000007, 37.018498900000054], [54.04435869900004, 37.04662450100005], [54.00199472600008, 37.16262992600008], [53.99034910000006, 37.22061160000004], [53.999504700000045, 37.26065230000006], [53.980472090000035, 37.34562519200006], [54.030556, 37.342222], [54.049279900000045, 37.33629060000004], [54.244677900000056, 37.31998560000005], [54.28519289900004, 37.351769], [54.347643600000026, 37.34862919900007], [54.39765970000008, 37.36069950000007], [54.43806420000004, 37.387806], [54.47219250000006, 37.404258999000035], [54.48740660000004, 37.41824380000003], [54.539309400000036, 37.43555790000005], [54.582255101000044, 37.458475], [54.611878800000056, 37.45473550000003], [54.622204700000054, 37.44578220000005], [54.673667600000044, 37.437055], [54.69780949900007, 37.45028270000006], [54.73165820000003, 37.488021600000025], [54.76969120000007, 37.49761280000007], [54.77058279900007, 37.514508800000044], [54.79251510000006, 37.52548890000003], [54.807587100000035, 37.570235600000046], [54.815247500000055, 37.60622979900006], [54.78976250000005, 37.61853190000005], [54.78456840000007, 37.63340150000005], [54.80282870000008, 37.662618500000065], [54.80148480100007, 37.67288030000003], [54.82228560000004, 37.69895580000008], [54.81971550000003, 37.71356120000007], [54.84279360000005, 37.74501550000008], [54.87776130000003, 37.77028690100008], [54.89221370000007, 37.76799920000008], [54.91215610000006, 37.78300570000005], [54.94188140000006, 37.78978630000006], [54.95796350000006, 37.81181770100005], [54.97410340000005, 37.81669520000003], [55.03963499900004, 37.86352690000007], [55.07931670000005, 37.914008100000046], [55.12678590000007, 37.945301], [55.178255301000036, 37.95761890000006], [55.204476500000055, 37.949209], [55.208802, 37.96606470000006], [55.22712980000006, 37.979288600000075], [55.273590600000034, 37.990381], [55.31392630000005, 38.00886970000005], [55.316389, 38.016389], [55.38472200100006, 38.041944], [55.414167, 38.067778], [55.442778, 38.086111], [55.469444, 38.090833], [55.523611, 38.09194399900008], [55.579444, 38.099167], [55.616111, 38.107777999000064], [55.691667, 38.111389], [55.748333, 38.125278], [55.777222, 38.120278], [55.806389, 38.1225], [55.841944, 38.101944], [55.891944, 38.090278], [55.934722, 38.091667], [55.9625, 38.078332999000054], [56.021385800000076, 38.077676600000075], [56.173056, 38.094444], [56.216111, 38.072222], [56.28897560000007, 38.08465830000006], [56.335248, 38.07724960000007], [56.333037700000034, 38.09921480100007], [56.351895, 38.11691569900006], [56.31948680000005, 38.17462040000004], [56.33277920000006, 38.19755370000007], [56.424444, 38.254722], [56.471111, 38.26305600100005], [56.50416699900006, 38.261667], [56.546667, 38.266111], [56.613889, 38.240556], [56.66416700100007, 38.268333], [56.695278, 38.266944], [56.756389, 38.285], [56.79271330000006, 38.25165889900006], [56.84047120000008, 38.22989970000003], [56.86292640100004, 38.22857030000006], [56.90982180000003, 38.21468740000006], [56.96285320000004, 38.211158100000034], [56.99199850000008, 38.214343900000074], [57.00976710000003, 38.186866800000075], [57.025, 38.201944], [57.050833, 38.193611], [57.076111, 38.199444], [57.095556, 38.219722], [57.13, 38.233055999000044], [57.165, 38.275833], [57.188889, 38.28333299900004], [57.239167, 38.273889], [57.255278, 38.234722], [57.271667, 38.227778], [57.288611, 38.195278], [57.288333, 38.170555999000044], [57.324722, 38.15], [57.341667, 38.1175], [57.371111, 38.09305599900006], [57.373056, 38.075556], [57.348333, 37.998889], [57.378889, 37.974722], [57.4075, 37.968056], [57.457778, 37.937778], [57.49385120000005, 37.937113200000056], [57.51219230000004, 37.919263], [57.54297430000008, 37.924781100000075], [57.579624100000046, 37.93804219900005], [57.628644300000076, 37.92221820000003], [57.65306330000004, 37.92561690100007], [57.68969800100007, 37.915986700000076], [57.72036760000003, 37.921856400000024], [57.74365990000007, 37.91181290000003], [57.75414039900005, 37.89749490000003], [57.795835200000056, 37.899553], [57.81022910000007, 37.87303030000004], [57.825473800000054, 37.86324650000006], [57.859255200000064, 37.87396520000004], [57.89157650000004, 37.87076240000005], [57.919698, 37.852731], [57.968219400000066, 37.84160380000003], [58.02785540100007, 37.80590250000006], [58.09484960000003, 37.801433099000064], [58.102458100000035, 37.787741700000026], [58.12614540000004, 37.783165601000064], [58.155062100000066, 37.79361740000007], [58.20325440000005, 37.77536370000007], [58.21809380000008, 37.739646900000025], [58.228771100000074, 37.729696200000035], [58.22704669900003, 37.68403650000005], [58.31120480000004, 37.662222], [58.35965120000003, 37.66110660000004], [58.36192, 37.64364149900007], [58.38843410000004, 37.62698460000007], [58.41797440000005, 37.63928970000006], [58.46722199900006, 37.64000000100003], [58.49805599900003, 37.647778], [58.527222, 37.689722], [58.55, 37.705833], [58.597462300000075, 37.689856500000076], [58.618056, 37.67499999900008], [58.665278, 37.655], [58.712778, 37.648611], [58.748889001000066, 37.666944], [58.77861100100006, 37.661944], [58.804444, 37.666944], [58.813056, 37.6975], [58.836111, 37.699444], [58.876389, 37.669167], [58.92611099900006, 37.67], [58.980833, 37.654722], [59.030833, 37.630278], [59.060278, 37.63], [59.122778, 37.581944], [59.15472200100004, 37.571111], [59.167074, 37.54917040000004], [59.22924970000008, 37.51204990000008], [59.238896200000056, 37.520689600000026], [59.26565620000008, 37.509767700000054], [59.31938930000007, 37.53002690000005], [59.35347940000008, 37.52841620000004], [59.36110890000003, 37.511438499000064], [59.392131, 37.47913740000007], [59.381420700000035, 37.44974640000004], [59.41134469900004, 37.43577390000007], [59.38271879900003, 37.420963200000074], [59.377877, 37.407589700000074], [59.38787730000007, 37.37369750000005], [59.39689770100006, 37.31730290000007], [59.40830290000008, 37.307773300000065], [59.43519370000007, 37.304082900000026], [59.436972, 37.28517410100005], [59.452283, 37.27885560000004], [59.49193720000005, 37.23363030000007], [59.47473780100006, 37.21477530000004], [59.53775019900007, 37.185298200000034], [59.552507, 37.17208160000007], [59.543935900000065, 37.158359], [59.55816390000007, 37.13172120000007], [59.59922370000004, 37.13251000100007], [59.626528800000074, 37.11865370000004], [59.64512560000003, 37.125162], [59.65349080000004, 37.14220990000007], [59.678998500000034, 37.141219600000056], [59.726657300000056, 37.12651050000005], [59.73657580000008, 37.112193200000036], [59.75528590000005, 37.108806], [59.771847800000046, 37.12534950000003], [59.81211230000008, 37.10419010000004], [59.83540960000005, 37.09917390000004], [59.87244839900006, 37.067899700000055], [59.93106620100008, 37.04230060000003], [59.98146790100003, 37.04711369900008], [60.016824400000075, 37.035687100000075], [60.04306870000005, 37.020763500000044], [60.084984200000065, 36.977755], [60.09455360000004, 36.93664630000006], [60.133411, 36.898690299000066], [60.16959410000004, 36.84783730000004], [60.21498810000003, 36.82032869900007], [60.221110200000055, 36.804399500000045], [60.266905, 36.757209500000044], [60.27711180000006, 36.73275570000004], [60.311020100000064, 36.674009100000035], [60.345542300000034, 36.629393899000036], [60.488854899000046, 36.62599020000005], [60.60871520000006, 36.627961], [60.67522050000008, 36.62221160000007], [60.853017100000045, 36.63205210000007], [61.14619420000008, 36.646493], [61.146543500000064, 36.633601199000054], [61.177778, 36.590556], [61.185556, 36.54944399900006], [61.17565680000007, 36.53693940000005], [61.15675260000006, 36.48641690000005], [61.175757600000054, 36.464162900000076], [61.16223640000004, 36.45247060000003], [61.166353, 36.41358610000003], [61.1425, 36.392778], [61.157475600000055, 36.354994600000055], [61.161450700000046, 36.296804500000064], [61.17549470000006, 36.28751640000007], [61.18927229900004, 36.261670200000026], [61.191404, 36.22786260000004], [61.20448060100006, 36.199834], [61.21623740000007, 36.19517410000003], [61.22643560000006, 36.16658220000005], [61.21075110000004, 36.130769300000054], [61.22843360000007, 36.11226750000003], [61.18313550000005, 36.06717500100007], [61.19222199900008, 36.054167], [61.164167, 36.032778], [61.173333, 36.00805599900008], [61.166667001000064, 35.990833], [61.144033300000046, 35.981529300000034], [61.11949650000008, 35.95662930100008], [61.18073160000006, 35.944379], [61.190556, 35.949167], [61.218611, 35.929722], [61.22749999900003, 35.898889], [61.24111099900006, 35.885278], [61.243611, 35.862778], [61.261944, 35.813333], [61.250833, 35.78638900100003], [61.24388900100007, 35.712222], [61.21623590000007, 35.68325340000007], [61.226226, 35.65068960000008], [61.24679310000005, 35.645202], [61.24712750100008, 35.626585300000045], [61.270837, 35.61446620000004], [61.270421, 35.559802500000046], [61.282579199000054, 35.53790330000004], [61.267065, 35.505983], [61.233745, 35.462285], [61.226716, 35.421256], [61.214398, 35.420043], [61.187459, 35.399592], [61.19515300100005, 35.385218], [61.17835899900007, 35.34994], [61.190296, 35.292865], [61.132931, 35.278358], [61.101093, 35.277287], [61.09177500100003, 35.263737], [61.09836, 35.2185], [61.117812, 35.210814], [61.092787, 35.183125], [61.124121, 35.135367], [61.139845, 35.10182], [61.14097900100006, 35.073357], [61.10866500100008, 35.030129], [61.112881, 35.008306], [61.10788, 34.982106], [61.095761, 34.974158], [61.097467, 34.951861], [61.07186800100004, 34.929477], [61.057683, 34.907504], [61.06831800100008, 34.882159], [61.074026, 34.84276300100004], [61.068078, 34.81229], [61.034179, 34.748928], [61.014272, 34.73175199900004], [61.00277250000005, 34.70869390000007], [61.000798, 34.642976], [60.984491999000056, 34.619758], [60.957575, 34.616675], [60.922214, 34.623018], [60.897272, 34.56726], [60.84865000100007, 34.542077], [60.822836, 34.544868], [60.742346, 34.526945], [60.75137099900007, 34.507627], [60.80739, 34.461911], [60.822457, 34.429279], [60.846062, 34.391701], [60.849631, 34.368448], [60.918373, 34.304756001000044], [60.88230099900005, 34.303396], [60.834018, 34.310593], [60.737434001000054, 34.307223], [60.686496, 34.310708], [60.67203220000005, 34.30275380000006], [60.668959, 34.272035], [60.620694900000046, 34.24382480100007], [60.565676, 34.192708], [60.554707, 34.168353], [60.53742150000005, 34.150697], [60.52265410000007, 34.106511100000034], [60.51760340000004, 34.061756700000046], [60.53307600100004, 34.00024949900006], [60.582213499000034, 33.80544370000007], [60.546893700000055, 33.73140950000004], [60.551463599000044, 33.64002960000005], [60.58127730000007, 33.597023300000046], [60.65501630000006, 33.55747329900004], [60.703418200000044, 33.54552], [60.75291509900006, 33.542918100000065], [60.90279520100006, 33.53996650000005], [60.94590350100003, 33.51349440000007], [60.92870780000004, 33.497203300000024], [60.88248640000006, 33.50524359900004], [60.850923100000045, 33.48200120000007], [60.863424801000065, 33.46162329900005], [60.86648360000004, 33.421487], [60.82435490000006, 33.399798], [60.759271700000056, 33.34363590000004], [60.63405480000006, 33.22814120000004], [60.58337750000004, 33.129904500000066], [60.62941390000003, 33.02123340000003], [60.70958140000005, 32.69585550000005], [60.814770999000075, 32.48129480000006], [60.84741850000006, 32.340298], [60.85909620000007, 32.26649240000006], [60.882921, 32.197736], [60.84271480000007, 32.06883220000003], [60.82252040000003, 32.03286110000005], [60.81875220000006, 32.01172370100005], [60.832519, 31.979859], [60.82249519900006, 31.96420080000007], [60.82747369900005, 31.929440700000043], [60.81789560000004, 31.88988610000007], [60.813483500000075, 31.70870130000003], [60.856057, 31.486519200000032], [61.31870610100003, 31.426561400000026], [61.571421299000065, 31.394233100000065], [61.70666730000005, 31.375896], [61.77838490000005, 31.302269400000057], [61.76990580000006, 31.250851600000033], [61.77685180000003, 31.213920400000063], [61.80636580000004, 31.159810100000072], [61.80341960100003, 31.145200900000077], [61.816287799000065, 31.104179200000033], [61.830369200000064, 31.09186180000006], [61.82407170000005, 30.997517299000037], [61.82677300100005, 30.980896400000063], [61.81395020000008, 30.955331199000057], [61.79028420000003, 30.943640500000072], [61.78196539900006, 30.911189], [61.79453750000005, 30.887167801000032], [61.792721, 30.867298100000028], [61.80480799900005, 30.839427400000034], [61.77153450000003, 30.80864040000006], [61.58468330000005, 30.613033100000052], [61.51171450000004, 30.538584], [61.343191500000046, 30.358775500000036], [61.094819, 30.09553210000007], [60.872855, 29.85854560000007], [60.901667, 29.826944], [61.16252380000003, 29.53333870000006], [61.29942800100008, 29.413184], [61.300881, 29.401864], [61.33409399900006, 29.379554], [61.352934, 29.38593], [61.373051, 29.339275], [61.366218, 29.318972001000077], [61.370346, 29.29747], [61.352263, 29.288731], [61.352909, 29.275983], [61.38305100100007, 29.231095], [61.426763, 29.19882], [61.412681, 29.175421], [61.41695799900003, 29.143192], [61.427906, 29.127943], [61.450712999000075, 29.131375999000056], [61.475619, 29.121674], [61.471443, 29.090871999000058], [61.485876, 29.072473], [61.503535, 29.066672], [61.51068399900004, 29.04778], [61.491773, 29.041135], [61.478861, 29.023639], [61.533361, 29.010222], [61.602083, 28.872999], [61.63759780000004, 28.814229900000043], [61.662893, 28.783828], [61.70752750000008, 28.754092400000047], [61.751215, 28.718052], [61.790565, 28.676767], [61.809063, 28.649074], [61.835902, 28.62574500100004], [61.85818, 28.617651], [61.887923999000066, 28.593108], [61.910018, 28.564377001000025], [61.970588, 28.53934699900003], [62.007879, 28.533411], [62.043906, 28.510134], [62.088512, 28.505486], [62.107581, 28.497677001000056], [62.168297, 28.488768], [62.207078, 28.469871], [62.248672, 28.462938], [62.282088, 28.450552], [62.325617, 28.450176], [62.350832, 28.436066], [62.388535, 28.432674], [62.42899, 28.406329], [62.438150001000054, 28.392851], [62.463069, 28.377888], [62.48755, 28.374481], [62.510261, 28.325989], [62.582139, 28.266141], [62.597191, 28.24842], [62.79296050100004, 28.278904400000044], [62.794427, 28.22725279900004], [62.76102150000008, 28.025923100000057], [62.788688500000035, 27.91645680000005], [62.828954500000066, 27.76446290000007], [62.84842290000006, 27.46293910000003], [62.802385, 27.364547999000024], [62.79652900100007, 27.333316], [62.826318, 27.309987], [62.80882, 27.264235], [62.776564, 27.257984], [62.82073100100007, 27.218458], [62.850262, 27.216104], [62.877641, 27.226231], [62.890948, 27.21310500100003], [62.947152, 27.201895], [62.984472, 27.218202], [62.993357, 27.215755], [63.040552, 27.23729], [63.052835, 27.233626], [63.086857, 27.244701], [63.089586, 27.235444], [63.121963, 27.236905], [63.16358900100005, 27.252593], [63.198716, 27.259436], [63.211309001000075, 27.236447001000045], [63.225433, 27.225303], [63.25036799900005, 27.227334], [63.276901, 27.218159], [63.332056, 27.120917], [63.30921710000007, 27.129353200000025], [63.29522619900007, 27.115178400000048], [63.266957500000046, 27.10960410000007], [63.251094400000056, 27.092150599000036], [63.253311, 26.903519], [63.239168, 26.897983], [63.237051001000054, 26.880393], [63.249492, 26.867712], [63.241612, 26.841333], [63.186862, 26.836556], [63.19494, 26.81108], [63.18772699900006, 26.799340001000076], [63.201819, 26.755563], [63.194692, 26.73910999900005], [63.200675, 26.710529], [63.188476, 26.695306], [63.201, 26.674222], [63.190472999000065, 26.666127], [63.195087, 26.646296], [63.138705, 26.65121799900004], [63.1007, 26.650391], [63.092249, 26.639819], [63.0676, 26.641099], [63.048856999000066, 26.627540999000075], [63.016474, 26.646076], [62.989971, 26.649943], [62.951140001000056, 26.647441], [62.943479, 26.640726999000037], [62.902441200000055, 26.64062910000007], [62.886958, 26.646431], [62.82398199900007, 26.638165], [62.7947, 26.65100299900007], [62.76902890000008, 26.641007001000048], [62.75512620000006, 26.645808900000077], [62.73168099900005, 26.625402001000054], [62.738858, 26.614994], [62.69656099900004, 26.608879], [62.67085299900003, 26.612561], [62.648636, 26.60859], [62.633608999000046, 26.591522], [62.604098, 26.576272999000025], [62.559429, 26.576935], [62.53315199900004, 26.571576], [62.516305, 26.576258001000042], [62.461388999000064, 26.56271], [62.440021, 26.564819], [62.423236, 26.550249], [62.419863200000066, 26.532775800000024], [62.389793, 26.532202], [62.37022500100005, 26.539377999000067], [62.303304, 26.508287], [62.29947400100008, 26.489653], [62.313823, 26.472918], [62.297452, 26.461832], [62.284882, 26.439747], [62.264992, 26.438653], [62.259498, 26.408339], [62.283581, 26.383429], [62.253075, 26.359691], [62.252185, 26.340611], [62.26997, 26.325595], [62.234262, 26.319359999000028], [62.224466, 26.284197], [62.214965, 26.268182999000032], [62.17808, 26.265538], [62.144928, 26.269098], [62.09992, 26.284327], [62.096912, 26.305386], [62.069793, 26.326816], [62.029243001000054, 26.332683], [62.028759, 26.31372199900005], [61.997223, 26.280631], [61.984503, 26.281497], [61.954785, 26.265225], [61.91742100100004, 26.253761], [61.897735, 26.262713], [61.889278, 26.251972], [61.893165, 26.233464], [61.86017, 26.17597], [61.841388, 26.065158], [61.833158, 26.057679], [61.84499, 26.019129], [61.830428, 25.987126999000054], [61.825024, 25.960406], [61.831706, 25.911402], [61.85684, 25.914788], [61.888665, 25.881888], [61.84218999900003, 25.87767400100006], [61.84355, 25.866086], [61.820408, 25.849211], [61.842825, 25.839699], [61.84886700100003, 25.82259], [61.840067, 25.744839999000078], [61.809152, 25.738181], [61.798361, 25.717907], [61.77372900100005, 25.731056], [61.745013, 25.733906], [61.725016, 25.726192], [61.678771, 25.658254], [61.676523, 25.64521], [61.66215690000007, 25.473923400000047], [61.66089970100006, 25.42499780000003], [61.655980500000055, 25.40363], [61.65017840000007, 25.33315170000003], [61.650581800000054, 25.30581250000006], [61.62953610100004, 25.209254500000043], [61.617836200000056, 25.176862], [61.583724148000044, 25.178704595000056], [61.578335451000044, 25.193262677000064], [61.59544190000008, 25.19969670000006], [61.57150779400007, 25.23134740200004], [61.56058553200006, 25.229506281000056], [61.55606430000006, 25.205106900000033], [61.51863810000003, 25.18117120000005], [61.48528840000006, 25.187544600000024], [61.49786920000008, 25.147716900000034], [61.477158, 25.125417], [61.48058830000008, 25.102984700000036], [61.42372390000003, 25.089605], [61.39897439900005, 25.067148100000054], [61.31769960000008, 25.087973700000077], [61.178698300000065, 25.12572540000008], [61.17968940000003, 25.156467500000076], [61.164314801000046, 25.167597100000023], [61.05584950000008, 25.20060950000004], [60.979179799000065, 25.218286799000055], [60.85886730000004, 25.23902380000004], [60.83677220000004, 25.250221700000054], [60.80286060000003, 25.254986100000053], [60.718461, 25.27519710000007], [60.674414, 25.275599300000067], [60.61239390000003, 25.284716701000036], [60.62551720000005, 25.296006700000078], [60.62334550000003, 25.315935300000035], [60.61044160100005, 25.33690130000008], [60.59551459900007, 25.347052699000074], [60.61152050000004, 25.36985560000005], [60.607897500000036, 25.396348800000055], [60.59567, 25.419239400000038], [60.577994200000035, 25.432426500000076], [60.53147890000008, 25.44337120000006], [60.47599420000006, 25.43606680000005], [60.43522780100005, 25.417201700000078], [60.40877870000003, 25.380877300000066], [60.40241820000006, 25.351529201000062], [60.40866230000006, 25.337987100000078], [60.44060150000007, 25.337039], [60.447606800000074, 25.31538450000005], [60.47072930400003, 25.298986876000072], [60.46906848800006, 25.287578291000045], [60.431768, 25.297920900000065], [60.42615480000006, 25.31189930000005], [60.33790190000008, 25.331017], [60.320236600000044, 25.330256200000065], [60.29759519700008, 25.349637604000065], [60.31347570000008, 25.362564100000043], [60.29486050000003, 25.38407329900008], [60.263040500000045, 25.38871770000003], [60.19694490000006, 25.370650500000067], [60.18946150000005, 25.35068220000005], [60.209650612000075, 25.33179066100007], [60.19690340000005, 25.324978400000077], [60.18140210000007, 25.335295100000053], [60.118782800000076, 25.345039600000064], [60.11515020000007, 25.363388100000066], [60.099621900000045, 25.37637809900008], [60.072600401000045, 25.380822600000045], [60.02998430000008, 25.380708500000026], [59.972577200000046, 25.373978200000067], [59.912532001000045, 25.36031040000006], [59.89170980000006, 25.35162870000005], [59.84888658700004, 25.372362017000057], [59.85127890000007, 25.389865800000052], [59.84012470000005, 25.39791610000003], [59.796397600000034, 25.40504180000005], [59.72982980000006, 25.401987500000075], [59.64695030100006, 25.391235600000073], [59.61043, 25.389604501000065], [59.573077701000045, 25.399556700000062], [59.54278520000008, 25.412834600000053], [59.519993200000044, 25.440771901000062], [59.486509100000035, 25.465926700000068], [59.440152700000056, 25.472493900000075], [59.404742800000065, 25.46388890000003], [59.38146781300003, 25.477210679000052], [59.371897500000046, 25.496024900000066], [59.357011700000044, 25.49575070000003], [59.37992360000004, 25.46208799900006], [59.30410190100008, 25.451487900000075], [59.26901850000007, 25.43855], [59.256813900000054, 25.461751900000024], [59.21799070000003, 25.467651400000022], [59.181168900000046, 25.448896900000022], [59.185834200000045, 25.488396100000045], [59.18040560000003, 25.500563901000078], [59.21436580000005, 25.516947600000037], [59.21435560000003, 25.517100500000026], [59.17925360000004, 25.503577500000063], [59.18320060000008, 25.486315799000067], [59.159288899000046, 25.471199200000058], [59.14294280000007, 25.469647500000065], [59.13671970000007, 25.447986900000046], [59.16780110000008, 25.43626830000005], [59.20379330000003, 25.442419200000074], [59.223811700000056, 25.463747200000057], [59.23829640000008, 25.441867800000068], [59.206209400000034, 25.43842280000007], [59.17195920000006, 25.429106400000023], [59.109475700000075, 25.403623500000037], [59.07085170100004, 25.412912799000026], [59.042648848000056, 25.410679385000037], [59.01927470000004, 25.415364901000032], [58.99270590000003, 25.431208500000025], [58.922533900000076, 25.50877820000005], [58.895859200000075, 25.526860700000043], [58.83970610000006, 25.53902990000006], [58.83080060100008, 25.553695300000072], [58.81058053800007, 25.560198548000074], [58.796393599000055, 25.575181401000066], [58.75878720000003, 25.575032400000055], [58.69797650000004, 25.567774601000053], [58.60294690000006, 25.58917340000005], [58.56078730000007, 25.59588], [58.55840560100006, 25.611397699000065], [58.52971410100008, 25.609079800000075], [58.490568, 25.587531700000056], [58.46102240000005, 25.58448469900003], [58.41041260000003, 25.598231700000042], [58.39532490000005, 25.619993099000055], [58.37966280000006, 25.627861300000063], [58.31709310000008, 25.603478600000074], [58.28086930000006, 25.599683300000038], [58.29444230000007, 25.577809700000046], [58.25632389900005, 25.572619600000053], [58.24240560000004, 25.584832800000072], [58.17616409900006, 25.571741900000063], [58.12298990000005, 25.574218400000063], [58.093905, 25.56528620100005], [58.038819500000045, 25.594306301000074], [58.055530300000044, 25.614350600000023], [58.02869380000004, 25.629210200000045], [58.03356940000003, 25.651564200000053], [58.00872970000006, 25.651866], [57.97717879900006, 25.682318499000075], [57.937360900000044, 25.702119], [57.87705760000006, 25.692177100000038], [57.76784240000006, 25.636527100000023], [57.78936290000007, 25.668143100000066], [57.803256099000066, 25.664979], [57.82187870000007, 25.68906590000006], [57.80605310100003, 25.70086390000006], [57.79154530000005, 25.69759780000004], [57.75544219900007, 25.737806401000057], [57.72750560000003, 25.747419200000024], [57.69130730000006, 25.75163610100003], [57.650351700000044, 25.74526190000006], [57.637117200000034, 25.733509500000025], [57.61199460000006, 25.74607190000006], [57.537830400000075, 25.746493], [57.49331010000003, 25.769169400000067], [57.420537600000046, 25.76566580100007], [57.407206400000064, 25.773553501000038], [57.34907460000005, 25.78051370000003], [57.30756050000008, 25.819993], [57.29745649900008, 25.83756020000004], [57.27717650000005, 25.92959570000005], [57.253536600000075, 25.97562950100007], [57.22886870000008, 26.004532100000063], [57.20082280100007, 26.008176800000058], [57.202995900000076, 26.029533600000036], [57.19032970000006, 26.035727300000076], [57.19143040100005, 26.099290600000074], [57.22588440000004, 26.156371501000024], [57.21665780100005, 26.178259900000057], [57.198130899000034, 26.185235], [57.196012401000075, 26.197847700000068], [57.16009750000006, 26.22667830000006], [57.140148700000054, 26.23702890000004], [57.118219801000066, 26.27976730100005], [57.113400100000035, 26.31374020000004], [57.12269790000005, 26.330202300000053], [57.098028500000055, 26.370366], [57.07960540000005, 26.374237400000027], [57.07448670000008, 26.411296700000037], [57.053227682000056, 26.45936581600006], [57.080983, 26.504752], [57.08481420000004, 26.557654700000057], [57.07787580000007, 26.62527], [57.061636899000064, 26.699513601000035], [57.02870919900005, 26.776721400000042], [57.02355380000006, 26.800910800000054], [57.00250219900005, 26.84458140000004], [56.97232310000004, 26.87831299900006], [56.96546640000008, 26.916630200000043], [56.94417140000007, 26.960741299000063], [56.953207500000076, 26.96598350000005], [56.97710900100003, 27.02202120000004], [56.96128690000006, 27.032149400000037], [56.93859710100003, 27.024395800000036], [56.927076200000045, 27.011486500000046], [56.87872730000004, 27.034574400000054], [56.86652410000005, 27.067171400000063], [56.84109310000008, 27.09023270000006], [56.85037620000003, 27.106754700000067], [56.84428530000008, 27.12470840000003], [56.81917740000006, 27.137835900000027], [56.790324199000054, 27.134911100000068], [56.765403700000036, 27.145326600000033], [56.71333230000005, 27.15865130000003], [56.695282500000076, 27.14903380000004], [56.648497200000065, 27.163642200000027], [56.63457090000003, 27.172937701000023], [56.57066260100004, 27.172980900000027], [56.542466399000034, 27.177084500000035], [56.47038450000008, 27.163151801000026], [56.433489300000076, 27.178116], [56.41720540000006, 27.17236040000006], [56.40212260000004, 27.190242300000023], [56.364114, 27.190790100000072], [56.28402290000008, 27.17826780000007], [56.25475030000007, 27.168688], [56.18735680000003, 27.135839200000078], [56.183478800000046, 27.153768900000046], [56.139545499000064, 27.15365470000006], [56.11928609900008, 27.146364], [56.09593440000003, 27.12479440000004], [56.08711590100006, 27.10861250000005], [56.04643519900003, 27.095650500000033], [55.98184730000003, 27.06946860000005], [55.98455030000008, 27.050281100000063], [55.960037, 27.048057800000038], [55.94538520000003, 27.021043100000043], [55.91591950000003, 27.016355900000065], [55.897843600000044, 27.019758499000034], [55.86171010000004, 27.005977], [55.84901610000003, 27.007860399000037], [55.804131, 26.998205700000028], [55.766485501000034, 27.005194], [55.74531090000005, 26.97285320000003], [55.72615330000008, 26.983297900000025], [55.67491050000007, 26.989299], [55.63092990000007, 26.975634800000023], [55.61987400100003, 26.95487410000004], [55.60417010000003, 26.95013970000008], [55.573133400000074, 26.92941550000006], [55.560735399000066, 26.903743400000053], [55.513400500000046, 26.886911600000076], [55.51227590000008, 26.822115300000064], [55.490456, 26.77670880000005], [55.46082820000004, 26.761168100000077], [55.41837046900008, 26.75480764400004], [55.391826500000036, 26.755971100000068], [55.36099605000004, 26.766185650000068], [55.335741, 26.786071200000038], [55.31054946100005, 26.782999080000025], [55.258626700000036, 26.783943], [55.23825720000008, 26.77788030000005], [55.21591470000004, 26.733034700000076], [55.19851747900003, 26.72358536300004], [55.16111980000005, 26.721789], [55.13478683000005, 26.699977046000072], [55.09966630000008, 26.696528400000034], [55.076294791000066, 26.669952038000076], [55.06480190000008, 26.649274800000057], [55.05027080000008, 26.641133301000025], [55.02686190000003, 26.640961401000027], [55.010435, 26.629215500000043], [54.97098050000005, 26.618288800000073], [54.948726400000055, 26.596816400000023], [54.899948401000074, 26.566201900000067], [54.88497828000004, 26.548645109000063], [54.85949860000005, 26.534010800000033], [54.844836100000066, 26.517993], [54.81558230100006, 26.52032070100006], [54.794804, 26.495970800000066], [54.75732860000005, 26.508951400000058], [54.724045, 26.51479530000006], [54.672379600000056, 26.513153], [54.62556950000004, 26.500204100000076], [54.602661400000045, 26.51913550000006], [54.58520999900003, 26.56161860000003], [54.57297930000004, 26.57916259900003], [54.552247, 26.59313939900005], [54.509163400000034, 26.599364], [54.45605257700004, 26.584506624000028], [54.40385243000003, 26.596214382000028], [54.375758301000076, 26.624038900000073], [54.338485509000066, 26.690183751000063], [54.315564100000074, 26.712463900000046], [54.278243100000054, 26.72818490000003], [54.258974100000046, 26.726038799000037], [54.24343830000004, 26.714620500000024], [54.18901160000007, 26.706411900000035], [54.138850500000046, 26.718061900000066], [54.12279745400008, 26.713475263000078], [54.04819720000006, 26.739963900000078], [54.023659800000075, 26.75651890000006], [53.98722839900006, 26.753589400000067], [53.94365750400004, 26.724450056000023], [53.92433720000008, 26.719326400000057], [53.87758470000006, 26.719683900000064], [53.853948900000034, 26.710605], [53.81455610000006, 26.710982700000045], [53.777485, 26.72086440000004], [53.744963100000064, 26.718890500000043], [53.72429103300004, 26.703634840000063], [53.69608750000003, 26.735643800000048], [53.60839360600005, 26.77096203600007], [53.56555940000004, 26.802616], [53.50467280000004, 26.838773900000035], [53.485100345000035, 26.86154574400007], [53.486439, 26.91307100100005], [53.478475, 26.962074100000052], [53.46218770100006, 26.978561699000068], [53.44396377100003, 26.979211329000066], [53.42860030000003, 26.990709699000035], [53.376699400000064, 26.99468930000006], [53.36306340100003, 27.001605700000027], [53.282312200000035, 27.028331300000048], [53.275892300000066, 27.035705300000075], [53.14378620000008, 27.078283], [53.11768120000005, 27.093304], [53.08163380000008, 27.09442130000008], [52.98048441200007, 27.13287217900006], [52.906200900000044, 27.170515], [52.83731139900004, 27.20016030000005], [52.75199470000007, 27.27129220000006], [52.737929475000044, 27.274312336000037], [52.69431890000004, 27.292769400000054]], [[45.02640150000008, 38.19574240000003], [45.00200040000004, 38.15958370000004], [45.00237380000004, 38.13886], [45.060707999000044, 38.12012310000006], [45.093162300000074, 38.13341090000006], [45.10854390000003, 38.15241639900006], [45.123281200000065, 38.139531300000044], [45.12107480000003, 38.12154360000005], [45.14424529900003, 38.115633900000034], [45.17157689900006, 38.12912820100007], [45.20589650000005, 38.12277480000006], [45.200220899000044, 38.079529699000034], [45.179679400000055, 38.02813020000008], [45.09610899900008, 38.00785060000004], [45.061930199000074, 37.98758820000006], [45.04949420000003, 37.97091690000008], [45.044843599000046, 37.920294600000034], [45.05428690000008, 37.89669120000008], [45.08835920000007, 37.844458], [45.12614990000003, 37.82891360000008], [45.14789360000003, 37.828549800000076], [45.21096489900003, 37.79650510000005], [45.26126860000005, 37.74653760000007], [45.263149799000075, 37.691957900000034], [45.240267, 37.67171550000006], [45.232629700000075, 37.65279080000005], [45.24013309900005, 37.635849300000075], [45.26516140000007, 37.62330960000003], [45.25652280000003, 37.595292], [45.28291260000003, 37.55390470000003], [45.264299900000026, 37.52028560000008], [45.26667020000008, 37.48387560000003], [45.29646810000003, 37.45407770000003], [45.302251700000056, 37.429057500000056], [45.31583040000004, 37.40592330000004], [45.31947660000003, 37.38115460000006], [45.29810260000005, 37.35739170000005], [45.296161099000074, 37.33456060000003], [45.307586300000025, 37.321261400000026], [45.304966, 37.284783600000026], [45.32101990000007, 37.269663001000026], [45.32021450000008, 37.251337], [45.34300990000003, 37.243069400000024], [45.350503, 37.20369150000005], [45.36198040000005, 37.192179200000055], [45.39319910000006, 37.18486890100007], [45.428140100000064, 37.15487199900008], [45.45134210000003, 37.12506939900004], [45.455930100000046, 37.107588100000044], [45.49343940000006, 37.104946400000074], [45.526495099000044, 37.117520900000045], [45.52983210000008, 37.10338040000005], [45.57444350000003, 37.081238099000075], [45.57589070000006, 37.05880610000003], [45.58606350000008, 37.047132100000056], [45.60841220000003, 37.046138900000074], [45.62860030000007, 37.067629400000044], [45.66051050000004, 37.06502449900006], [45.67614, 37.08846870000008], [45.670279, 37.110610500000064], [45.65269580000006, 37.12233260000005], [45.662464199000055, 37.149684200000024], [45.68265229900004, 37.160755100000074], [45.69763060100007, 37.195921499000065], [45.699584300000026, 37.219365700000026], [45.712608800000055, 37.230436600000075], [45.75168260000004, 37.22457560000004], [45.780889599000034, 37.228470999000024], [45.833086200000025, 37.23694890000007], [45.86629880000004, 37.256485800000064], [45.85587919900007, 37.29165210000008], [45.85718159900006, 37.311189], [45.906674999000074, 37.30142060000003], [45.92611950000003, 37.301940100000024], [45.939868200000035, 37.33667360100003], [45.96953630000007, 37.36055280000005], [45.98183780000005, 37.377919500000075], [45.95723489900007, 37.397457100000054], [45.91870250000005, 37.38418329900003], [45.87980829900005, 37.406864100000064], [45.855929100000026, 37.437979400000074], [45.82336650000008, 37.458964200000025], [45.821919200000025, 37.475607300000036], [45.79120509900008, 37.50359080000004], [45.79275319900006, 37.51566380000003], [45.75645870000005, 37.52948750100006], [45.74797070000005, 37.54468279900004], [45.72287120000004, 37.55726270100007], [45.72500319900007, 37.57409050000007], [45.71072080000005, 37.58323370000005], [45.702238, 37.60435330000007], [45.67229930000008, 37.61698240000004], [45.66637040000006, 37.631678100000045], [45.69682130000007, 37.63501450000007], [45.71987740000003, 37.624457300000074], [45.78349050000003, 37.619736300000056], [45.79960340000008, 37.62473630000005], [45.82280090000006, 37.65539250000006], [45.823438800000076, 37.669745300000045], [45.804620700000044, 37.69876990000006], [45.782932, 37.71726910000007], [45.691393, 37.745336800000075], [45.659816800000044, 37.76734440000007], [45.620266799000035, 37.776594], [45.562536600000044, 37.77340449900004], [45.50735810000003, 37.75458640100004], [45.51054760100004, 37.73580810000004], [45.49691240000004, 37.72887090000006], [45.47859390000008, 37.74763610000008], [45.446187500000065, 37.762775], [45.413198899000065, 37.80869160000003], [45.41851250000008, 37.81578590000004], [45.407850300000064, 37.88740780000006], [45.42891460100003, 37.913428200000055], [45.44763930000005, 37.923909200000026], [45.51153130000006, 37.93335590000004], [45.534311401000025, 37.96141590000008], [45.52042110000008, 37.983084500000075], [45.53635340000005, 38.025739901000065], [45.52647120000006, 38.04263520000006], [45.53926220000005, 38.075798200000065], [45.53334490000003, 38.116323100000045], [45.514337701000045, 38.14106830000003], [45.47598870000007, 38.169865300000026], [45.44529820100007, 38.20376520000008], [45.40366780000005, 38.22430820000005], [45.37852870000006, 38.24737870000007], [45.35874510100007, 38.25253], [45.258278, 38.26031180000007], [45.19318029900006, 38.257533], [45.12929070000007, 38.267530701000055], [45.10317730000003, 38.26364090000004], [45.07178780000004, 38.25614029900004], [45.041488, 38.229111300000056], [45.05332270000008, 38.21117990000005], [45.02640150000008, 38.19574240000003]], [[54.49236140000005, 26.309644297000034], [54.51322930100008, 26.31742949900007], [54.52834959100005, 26.312671574000035], [54.53865148800003, 26.27669137500004], [54.527787200000034, 26.256726400000048], [54.508019999000055, 26.253253099000062], [54.48529810000008, 26.294069700000023], [54.49236140000005, 26.309644297000034]], [[54.04174090100008, 26.503506799000036], [53.98328140000007, 26.49487780000004], [53.91123180000005, 26.52233140000004], [53.89869470000008, 26.543842], [53.92994440000007, 26.56880140000004], [53.956345300000066, 26.574372200000028], [53.99098410000005, 26.564898800000037], [54.02306770100006, 26.562234700000033], [54.024091500000054, 26.544154700000036], [54.048568300000056, 26.523699200000067], [54.04174090100008, 26.503506799000036]], [[53.59381705900006, 26.68405352900004], [53.611047, 26.695183900000075], [53.650742981000064, 26.687231603000043], [53.67169739600007, 26.677711423000062], [53.64978140000005, 26.656001400000036], [53.62943330000007, 26.657410800000036], [53.59780050000006, 26.670358699000076], [53.59381705900006, 26.68405352900004]], [[53.35866200100003, 26.790012800000056], [53.33667930000007, 26.794106300000067], [53.30382575100003, 26.786157244000037], [53.228113800000074, 26.799542400000064], [53.19037197000006, 26.814903258000072], [53.15776229900007, 26.841251400000033], [53.173538, 26.850390700000048], [53.19798940000004, 26.847384099000067], [53.23256840000005, 26.834110200000055], [53.30199830000004, 26.82232380100004], [53.33672320000005, 26.824197300000037], [53.384124100000065, 26.803732300000036], [53.35866200100003, 26.790012800000056]], [[50.88482136300007, 29.069956250000075], [50.888820001000056, 29.028148200000032], [50.88460099900004, 29.00615030000006], [50.87019439200003, 29.005478036000056], [50.87208540000006, 29.069805900000063], [50.88482136300007, 29.069956250000075]], [[50.29465734200005, 29.27418434200007], [50.33590910000004, 29.258647599000028], [50.32619680000005, 29.23762270000003], [50.33070740000005, 29.216069700000048], [50.304795280000064, 29.215544029000057], [50.291035700000066, 29.261118200000055], [50.29465734200005, 29.27418434200007]], [[53.96473230000004, 36.89932740000006], [53.96502680000003, 36.90949520100003], [54.00794220000006, 36.91566190000003], [54.01860310100005, 36.902064600000074], [53.96473230000004, 36.89932740000006]], [[55.03272860000004, 25.859418900000037], [55.009226100000035, 25.876284500000054], [55.039521800000045, 25.89985739900004], [55.05647635200006, 25.861648901000024], [55.03272860000004, 25.859418900000037]], [[54.55437339900004, 25.911500600000068], [54.54580580000004, 25.892561700000044], [54.49740330000003, 25.899991700000044], [54.495982800000036, 25.912764200000026], [54.54402800100007, 25.932531900000072], [54.55437339900004, 25.911500600000068]], [[55.31408344400006, 26.282109114000036], [55.32189456700007, 26.272610147000023], [55.32166970000003, 26.248608500000046], [55.293669400000056, 26.249563900000055], [55.293389801000046, 26.274735], [55.31408344400006, 26.282109114000036]], [[55.891630501000066, 26.685861101000057], [55.91437260100008, 26.659720100000072], [55.89789745300004, 26.624329111000065], [55.86230470000004, 26.611326400000053], [55.84552960100007, 26.62855920000004], [55.880045, 26.681543599000065], [55.891630501000066, 26.685861101000057]], [[56.26580670000004, 26.92887460000003], [56.21357350000005, 26.92413320000003], [56.18513000100006, 26.917344], [56.16535309900007, 26.904447100000027], [56.15453, 26.86971580000005], [56.140399700000046, 26.841274100000078], [56.11513720000005, 26.827269100000024], [56.08323440000004, 26.79492890000006], [56.08695380100005, 26.79020950000006], [56.02367540000006, 26.747990800000025], [55.98024330000004, 26.726240500000074], [55.97772490500006, 26.71367929200005], [55.94417940000005, 26.690148900000054], [55.915147199000046, 26.691851400000076], [55.90844930000003, 26.713098600000023], [55.875370100000055, 26.734749900000054], [55.85367210000004, 26.734371301000067], [55.82623570000004, 26.722203700000023], [55.80152470000007, 26.701541700000064], [55.77018870000006, 26.685321701000078], [55.74532570000008, 26.680215700000076], [55.70325130000003, 26.687579], [55.688838701000066, 26.68588070000004], [55.64689230000005, 26.655232900000044], [55.61435970000008, 26.639377700000068], [55.544435700000065, 26.622212700000034], [55.50907210000008, 26.596720101000074], [55.49200350000007, 26.59160650000007], [55.459214700000075, 26.595404100000053], [55.41328190000007, 26.575943401000075], [55.36089940000005, 26.562188800000058], [55.330025, 26.571236701000032], [55.31823920000005, 26.553072900000075], [55.28213970000007, 26.542751700000053], [55.26862969900003, 26.575774700000068], [55.27696970000005, 26.611120700000072], [55.268251200000066, 26.64616170000005], [55.289802200000054, 26.649834499000065], [55.336426, 26.642294100000072], [55.365737, 26.649704900000074], [55.406593300000054, 26.672347400000035], [55.44836470000007, 26.677796701000034], [55.48932670000005, 26.698819701000048], [55.52081070000003, 26.70069570000004], [55.53046069900006, 26.707613700000024], [55.56590670000003, 26.713636700000052], [55.604638700000066, 26.732417700000042], [55.62600720100005, 26.748299300000042], [55.67163160000007, 26.768684799000027], [55.724794700000075, 26.768541300000038], [55.744339300000036, 26.764554200000077], [55.80239140000003, 26.780521600000043], [55.818363300000044, 26.789294700000028], [55.81963620000005, 26.81306630000006], [55.808834200000035, 26.840600400000028], [55.795645199000035, 26.846835100000078], [55.771740400000056, 26.886922699000024], [55.75570420000008, 26.896817], [55.73051420000007, 26.92849330000007], [55.73346520000007, 26.94414370000004], [55.76206771900007, 26.951672469000073], [55.79220790100004, 26.943444200000044], [55.80541660000006, 26.93030680000004], [55.85191160000005, 26.90251980000005], [55.87176010100006, 26.897038800000075], [55.895843600000035, 26.899910800000043], [55.935610600000075, 26.912952801000074], [55.957206400000075, 26.932524], [55.998848199000065, 26.953932200000054], [56.02775250000008, 26.953674099000068], [56.11272660000003, 26.982231799000033], [56.14682320000003, 26.989999499000078], [56.15625830000005, 26.998538301000053], [56.16720340100005, 26.991640500000074], [56.20881410000004, 26.99636350000003], [56.23910330000007, 26.977638300000024], [56.276229898000054, 26.963983132000067], [56.28170820000008, 26.942828900000052], [56.26580670000004, 26.92887460000003]], [[56.32993688900007, 26.823221927000077], [56.319962100000055, 26.84957860000003], [56.35742519300004, 26.888177248000034], [56.367672500000026, 26.88481530000007], [56.40299650000003, 26.882898], [56.41298970000008, 26.87009880000005], [56.400189, 26.849534599000037], [56.366719800000055, 26.828757100000075], [56.32993688900007, 26.823221927000077]], [[56.420593100000076, 27.053478700000028], [56.42554110000003, 27.075796], [56.45321102300005, 27.101697615000035], [56.45816120000006, 27.092830400000025], [56.49861320000008, 27.075842600000044], [56.50131950000008, 27.058813500000042], [56.47469710000007, 27.033131799000046], [56.43824579900007, 27.03879930000005], [56.420593100000076, 27.053478700000028]]]}}]}